SL-14 R/B               
1 16496U 86006B   26095.84376897  .00001250  00000+0  12997-3 0  9998
2 16496  82.5265 234.1765 0076451 181.5815 178.5173 14.86865512153249
COSMOS 1743             
1 16719U 86034A   26095.33222923  .00056428  00000+0  66721-3 0  9992
2 16719  82.5317  45.8217 0005921 153.0895 207.0670 15.61046953184406
SL-14 R/B               
1 16792U 86046B   26095.61441593  .00000732  00000+0  81341-4 0  9996
2 16792  82.4818  54.7366 0024151 136.2047 224.1091 14.85619807130401
SL-14 R/B               
1 16882U 86055B   26095.76459537  .00000637  00000+0  70617-4 0  9997
2 16882  82.5168 101.2175 0017492 240.2595 292.6660 14.85669412123388
AJISAI (EGS)            
1 16908U 86061A   26095.85339552 -.00000083  00000+0  10259-3 0  9998
2 16908  50.0122   9.8199 0011374 356.8991  46.2434 12.44515692471384
SL-14 R/B               
1 17567U 87024B   26095.63800786  .00000700  00000+0  76844-4 0  9996
2 17567  82.5267  67.4285 0018514 166.6822 193.4887 14.86160960 92136
COSMOS 1833             
1 17589U 87027A   26095.76043692 -.00000316  00000+0 -14312-3 0  9998
2 17589  70.9163 269.1172 0022922 173.9770 186.1632 14.13043473 14144
SL-16 R/B               
1 17590U 87027B   26095.79670940  .00000230  00000+0  13792-3 0  9999
2 17590  71.0028 219.3699 0002865  73.5123 286.6315 14.17169293 19186
SL-14 R/B               
1 17912U 87038B   26095.84888820  .00000642  00000+0  71509-4 0  9991
2 17912  82.4979 271.2141 0020704  76.0704 284.2813 14.85397064 83260
COSMOS 1844             
1 17973U 87041A   26095.76672677  .00000282  00000+0  17114-3 0  9995
2 17973  70.9015 337.0657 0031620 338.0906  21.8861 14.14563025  7412
SL-14 R/B               
1 18153U 87055B   26095.68625005  .00000562  00000+0  61913-4 0  9993
2 18153  82.4993 323.5896 0019149 285.6883  74.2221 14.85657315 73941
COSMOS 1867             
1 18187U 87060A   26095.75709610 -.00000004  00000+0  36308-4 0  9991
2 18187  65.0102 230.8994 0014985 280.1742  79.7652 14.31507639 23816
SL-14 R/B               
1 18749U 88001B   26095.68348901  .00000645  00000+0  71595-4 0  9992
2 18749  82.5156 169.9798 0018965 145.3432 214.9025 14.85558950 46034
COSMOS 1933             
1 18958U 88020A   26095.81451411  .00005778  00000+0  28053-3 0  9993
2 18958  82.5147 224.0685 0005374 104.3210 255.8621 15.18269651 54346
SL-3 R/B                
1 19046U 88032B   26095.85407262  .00006019  00000+0  27813-3 0  9996
2 19046  97.5227  79.0213 0027140 136.4033 223.9353 15.20231258 56232
SL-16 R/B               
1 19120U 88039B   26095.82654019 -.00000071  00000+0 -10785-4 0  9992
2 19120  71.0174  11.1669 0023890 295.5929  64.2727 14.19620694962234
COSMOS 1953             
1 19210U 88050A   26095.59326877  .00008418  00000+0  29748-3 0  9996
2 19210  82.5054 131.1785 0011767  38.5154 321.6923 15.28970481 41896
