[{"OBJECT_NAME":"SL-14 R/B","OBJECT_ID":"1986-006B","EPOCH":"2026-04-05T20:15:01.639008","MEAN_MOTION":14.86865512,"ECCENTRICITY":0.0076451,"INCLINATION":82.5265,"RA_OF_ASC_NODE":234.1765,"ARG_OF_PERICENTER":181.5815,"MEAN_ANOMALY":178.5173,"EPHEMERIS_TYPE":0,"CLASSIFICATION_TYPE":"U","NORAD_CAT_ID":16496,"ELEMENT_SET_NO":999,"REV_AT_EPOCH":15324,"BSTAR":0.00012997,"MEAN_MOTION_DOT":1.25e-5,"MEAN_MOTION_DDOT":0},{"OBJECT_NAME":"COSMOS 1743","OBJECT_ID":"1986-034A","EPOCH":"2026-04-05T07:58:24.605472","MEAN_MOTION":15.61046953,"ECCENTRICITY":0.0005921,"INCLINATION":82.5317,"RA_OF_ASC_NODE":45.8217,"ARG_OF_PERICENTER":153.0895,"MEAN_ANOMALY":207.067,"EPHEMERIS_TYPE":0,"CLASSIFICATION_TYPE":"U","NORAD_CAT_ID":16719,"ELEMENT_SET_NO":999,"REV_AT_EPOCH":18440,"BSTAR":0.00066721,"MEAN_MOTION_DOT":0.00056428,"MEAN_MOTION_DDOT":0},{"OBJECT_NAME":"SL-14 R/B","OBJECT_ID":"1986-046B","EPOCH":"2026-04-05T14:44:45.536352","MEAN_MOTION":14.85619807,"ECCENTRICITY":0.0024151,"INCLINATION":82.4818,"RA_OF_ASC_NODE":54.7366,"ARG_OF_PERICENTER":136.2047,"MEAN_ANOMALY":224.1091,"EPHEMERIS_TYPE":0,"CLASSIFICATION_TYPE":"U","NORAD_CAT_ID":16792,"ELEMENT_SET_NO":999,"REV_AT_EPOCH":13040,"BSTAR":8.1341e-5,"MEAN_MOTION_DOT":7.32e-6,"MEAN_MOTION_DDOT":0},{"OBJECT_NAME":"SL-14 R/B","OBJECT_ID":"1986-055B","EPOCH":"2026-04-05T18:21:01.039968","MEAN_MOTION":14.85669412,"ECCENTRICITY":0.0017492,"INCLINATION":82.5168,"RA_OF_ASC_NODE":101.2175,"ARG_OF_PERICENTER":240.2595,"MEAN_ANOMALY":292.666,"EPHEMERIS_TYPE":0,"CLASSIFICATION_TYPE":"U","NORAD_CAT_ID":16882,"ELEMENT_SET_NO":999,"REV_AT_EPOCH":12338,"BSTAR":7.0617e-5,"MEAN_MOTION_DOT":6.37e-6,"MEAN_MOTION_DDOT":0},{"OBJECT_NAME":"AJISAI (EGS)","OBJECT_ID":"1986-061A","EPOCH":"2026-04-05T20:28:53.372928","MEAN_MOTION":12.44515692,"ECCENTRICITY":0.0011374,"INCLINATION":50.0122,"RA_OF_ASC_NODE":9.8199,"ARG_OF_PERICENTER":356.8991,"MEAN_ANOMALY":46.2434,"EPHEMERIS_TYPE":0,"CLASSIFICATION_TYPE":"U","NORAD_CAT_ID":16908,"ELEMENT_SET_NO":999,"REV_AT_EPOCH":47138,"BSTAR":0.00010259,"MEAN_MOTION_DOT":-8.3e-7,"MEAN_MOTION_DDOT":0},{"OBJECT_NAME":"SL-14 R/B","OBJECT_ID":"1987-024B","EPOCH":"2026-04-05T15:18:43.879104","MEAN_MOTION":14.8616096,"ECCENTRICITY":0.0018514,"INCLINATION":82.5267,"RA_OF_ASC_NODE":67.4285,"ARG_OF_PERICENTER":166.6822,"MEAN_ANOMALY":193.4887,"EPHEMERIS_TYPE":0,"CLASSIFICATION_TYPE":"U","NORAD_CAT_ID":17567,"ELEMENT_SET_NO":999,"REV_AT_EPOCH":9213,"BSTAR":7.6844e-5,"MEAN_MOTION_DOT":7.0e-6,"MEAN_MOTION_DDOT":0},{"OBJECT_NAME":"COSMOS 1833","OBJECT_ID":"1987-027A","EPOCH":"2026-04-05T18:15:01.749888","MEAN_MOTION":14.13043473,"ECCENTRICITY":0.0022922,"INCLINATION":70.9163,"RA_OF_ASC_NODE":269.1172,"ARG_OF_PERICENTER":173.977,"MEAN_ANOMALY":186.1632,"EPHEMERIS_TYPE":0,"CLASSIFICATION_TYPE":"U","NORAD_CAT_ID":17589,"ELEMENT_SET_NO":999,"REV_AT_EPOCH":1414,"BSTAR":-0.00014312,"MEAN_MOTION_DOT":-3.16e-6,"MEAN_MOTION_DDOT":0},{"OBJECT_NAME":"SL-16 R/B","OBJECT_ID":"1987-027B","EPOCH":"2026-04-05T19:07:15.692160","MEAN_MOTION":14.17169293,"ECCENTRICITY":0.0002865,"INCLINATION":71.0028,"RA_OF_ASC_NODE":219.3699,"ARG_OF_PERICENTER":73.5123,"MEAN_ANOMALY":286.6315,"EPHEMERIS_TYPE":0,"CLASSIFICATION_TYPE":"U","NORAD_CAT_ID":17590,"ELEMENT_SET_NO":999,"REV_AT_EPOCH":1918,"BSTAR":0.00013792,"MEAN_MOTION_DOT":2.3e-6,"MEAN_MOTION_DDOT":0},{"OBJECT_NAME":"SL-14 R/B","OBJECT_ID":"1987-038B","EPOCH":"2026-04-05T20:22:23.940480","MEAN_MOTION":14.85397064,"ECCENTRICITY":0.0020704,"INCLINATION":82.4979,"RA_OF_ASC_NODE":271.2141,"ARG_OF_PERICENTER":76.0704,"MEAN_ANOMALY":284.2813,"EPHEMERIS_TYPE":0,"CLASSIFICATION_TYPE":"U","NORAD_CAT_ID":17912,"ELEMENT_SET_NO":999,"REV_AT_EPOCH":8326,"BSTAR":7.1509e-5,"MEAN_MOTION_DOT":6.42e-6,"MEAN_MOTION_DDOT":0},{"OBJECT_NAME":"COSMOS 1844","OBJECT_ID":"1987-041A","EPOCH":"2026-04-05T18:24:05.192928","MEAN_MOTION":14.14563025,"ECCENTRICITY":0.003162,"INCLINATION":70.9015,"RA_OF_ASC_NODE":337.0657,"ARG_OF_PERICENTER":338.0906,"MEAN_ANOMALY":21.8861,"EPHEMERIS_TYPE":0,"CLASSIFICATION_TYPE":"U","NORAD_CAT_ID":17973,"ELEMENT_SET_NO":999,"REV_AT_EPOCH":741,"BSTAR":0.00017114,"MEAN_MOTION_DOT":2.82e-6,"MEAN_MOTION_DDOT":0},{"OBJECT_NAME":"SL-14 R/B","OBJECT_ID":"1987-055B","EPOCH":"2026-04-05T16:28:12.004320","MEAN_MOTION":14.85657315,"ECCENTRICITY":0.0019149,"INCLINATION":82.4993,"RA_OF_ASC_NODE":323.5896,"ARG_OF_PERICENTER":285.6883,"MEAN_ANOMALY":74.2221,"EPHEMERIS_TYPE":0,"CLASSIFICATION_TYPE":"U","NORAD_CAT_ID":18153,"ELEMENT_SET_NO":999,"REV_AT_EPOCH":7394,"BSTAR":6.1913e-5,"MEAN_MOTION_DOT":5.62e-6,"MEAN_MOTION_DDOT":0},{"OBJECT_NAME":"COSMOS 1867","OBJECT_ID":"1987-060A","EPOCH":"2026-04-05T18:10:13.103040","MEAN_MOTION":14.31507639,"ECCENTRICITY":0.0014985,"INCLINATION":65.0102,"RA_OF_ASC_NODE":230.8994,"ARG_OF_PERICENTER":280.1742,"MEAN_ANOMALY":79.7652,"EPHEMERIS_TYPE":0,"CLASSIFICATION_TYPE":"U","NORAD_CAT_ID":18187,"ELEMENT_SET_NO":999,"REV_AT_EPOCH":2381,"BSTAR":3.6308e-5,"MEAN_MOTION_DOT":-4.0e-8,"MEAN_MOTION_DDOT":0},{"OBJECT_NAME":"SL-14 R/B","OBJECT_ID":"1988-001B","EPOCH":"2026-04-05T16:24:13.450464","MEAN_MOTION":14.8555895,"ECCENTRICITY":0.0018965,"INCLINATION":82.5156,"RA_OF_ASC_NODE":169.9798,"ARG_OF_PERICENTER":145.3432,"MEAN_ANOMALY":214.9025,"EPHEMERIS_TYPE":0,"CLASSIFICATION_TYPE":"U","NORAD_CAT_ID":18749,"ELEMENT_SET_NO":999,"REV_AT_EPOCH":4603,"BSTAR":7.1595e-5,"MEAN_MOTION_DOT":6.45e-6,"MEAN_MOTION_DDOT":0},{"OBJECT_NAME":"COSMOS 1933","OBJECT_ID":"1988-020A","EPOCH":"2026-04-05T19:32:54.019104","MEAN_MOTION":15.18269651,"ECCENTRICITY":0.0005374,"INCLINATION":82.5147,"RA_OF_ASC_NODE":224.0685,"ARG_OF_PERICENTER":104.321,"MEAN_ANOMALY":255.8621,"EPHEMERIS_TYPE":0,"CLASSIFICATION_TYPE":"U","NORAD_CAT_ID":18958,"ELEMENT_SET_NO":999,"REV_AT_EPOCH":5434,"BSTAR":0.00028053,"MEAN_MOTION_DOT":5.778e-5,"MEAN_MOTION_DDOT":0},{"OBJECT_NAME":"SL-3 R/B","OBJECT_ID":"1988-032B","EPOCH":"2026-04-05T20:29:51.874368","MEAN_MOTION":15.20231258,"ECCENTRICITY":0.002714,"INCLINATION":97.5227,"RA_OF_ASC_NODE":79.0213,"ARG_OF_PERICENTER":136.4033,"MEAN_ANOMALY":223.9353,"EPHEMERIS_TYPE":0,"CLASSIFICATION_TYPE":"U","NORAD_CAT_ID":19046,"ELEMENT_SET_NO":999,"REV_AT_EPOCH":5623,"BSTAR":0.00027813,"MEAN_MOTION_DOT":6.019e-5,"MEAN_MOTION_DDOT":0},{"OBJECT_NAME":"SL-16 R/B","OBJECT_ID":"1988-039B","EPOCH":"2026-04-05T19:50:13.072416","MEAN_MOTION":14.19620694,"ECCENTRICITY":0.002389,"INCLINATION":71.0174,"RA_OF_ASC_NODE":11.1669,"ARG_OF_PERICENTER":295.5929,"MEAN_ANOMALY":64.2727,"EPHEMERIS_TYPE":0,"CLASSIFICATION_TYPE":"U","NORAD_CAT_ID":19120,"ELEMENT_SET_NO":999,"REV_AT_EPOCH":96223,"BSTAR":-1.0785e-5,"MEAN_MOTION_DOT":-7.1e-7,"MEAN_MOTION_DDOT":0},{"OBJECT_NAME":"COSMOS 1953","OBJECT_ID":"1988-050A","EPOCH":"2026-04-05T14:14:18.421728","MEAN_MOTION":15.28970481,"ECCENTRICITY":0.0011767,"INCLINATION":82.5054,"RA_OF_ASC_NODE":131.1785,"ARG_OF_PERICENTER":38.5154,"MEAN_ANOMALY":321.6923,"EPHEMERIS_TYPE":0,"CLASSIFICATION_TYPE":"U","NORAD_CAT_ID":19210,"ELEMENT_SET_NO":999,"REV_AT_EPOCH":4189,"BSTAR":0.00029748,"MEAN_MOTION_DOT":8.418e-5,"MEAN_MOTION_DDOT":0}]
